{
  "type": "FeatureCollection",
  "features": [
    {
      "type": "Feature",
      "properties": {
        "norad_id": 41581,
        "name": "INTELSAT 31 (IS-31)",
        "group": "intelsat",
        "lat": -0.0016703036291181095,
        "lon": 123.91412641051069,
        "alt_km": 35787.33318611751,
        "timestamp": "2025-12-06T09:34:16.585686+00:00",
        "meta_object_name": "INTELSAT 31 (IS-31)",
        "meta_object_id": "2016-035A",
        "meta_epoch": "2025-12-05T21:48:17.669376",
        "meta_mean_motion": 1.00270095,
        "meta_eccentricity": 0.00020973,
        "meta_inclination": 0.0181,
        "meta_ra_of_asc_node": 271.3649,
        "meta_arg_of_pericenter": 307.1586,
        "meta_mean_anomaly": 88.4513,
        "meta_ephemeris_type": 0,
        "meta_classification_type": "U",
        "meta_norad_cat_id": 41581,
        "meta_element_set_no": 999,
        "meta_rev_at_epoch": 3474,
        "meta_bstar": 0,
        "meta_mean_motion_dot": -1.41e-06,
        "meta_mean_motion_ddot": 0,
        "tle_line1": "1 41581U 16035A   25339.90853784 -.00000141  00000+0  00000+0 0  9995",
        "tle_line2": "2 41581   0.0181 271.3649 0002097 307.1586  88.4513  1.00270095 34742"
      },
      "geometry": {
        "type": "Point",
        "coordinates": [
          123.91412641051069,
          -0.0016703036291181095
        ]
      }
    },
    {
      "type": "Feature",
      "properties": {
        "norad_id": 41747,
        "name": "INTELSAT 36 (IS-36)",
        "group": "intelsat",
        "lat": -0.030583671767008234,
        "lon": -72.49406339168728,
        "alt_km": 35775.191215896884,
        "timestamp": "2025-12-06T09:34:16.585698+00:00",
        "meta_object_name": "INTELSAT 36 (IS-36)",
        "meta_object_id": "2016-053A",
        "meta_epoch": "2025-12-05T21:26:38.561568",
        "meta_mean_motion": 1.00280112,
        "meta_eccentricity": 0.00021281,
        "meta_inclination": 0.0114,
        "meta_ra_of_asc_node": 359.9271,
        "meta_arg_of_pericenter": 305.4208,
        "meta_mean_anomaly": 159.7561,
        "meta_ephemeris_type": 0,
        "meta_classification_type": "U",
        "meta_norad_cat_id": 41747,
        "meta_element_set_no": 999,
        "meta_rev_at_epoch": 3401,
        "meta_bstar": 0,
        "meta_mean_motion_dot": -1.7e-07,
        "meta_mean_motion_ddot": 0,
        "tle_line1": "1 41747U 16053A   25339.89350187 -.00000017  00000+0  00000+0 0  9998",
        "tle_line2": "2 41747   0.0114 359.9271 0002128 305.4208 159.7561  1.00280112 34019"
      },
      "geometry": {
        "type": "Point",
        "coordinates": [
          -72.49406339168728,
          -0.030583671767008234
        ]
      }
    },
    {
      "type": "Feature",
      "properties": {
        "norad_id": 41945,
        "name": "INTELSAT 32E (IS-32E)",
        "group": "intelsat",
        "lat": 0.015089309425571962,
        "lon": 175.81435878291848,
        "alt_km": 35787.80542714371,
        "timestamp": "2025-12-06T09:34:16.585709+00:00",
        "meta_object_name": "INTELSAT 32E (IS-32E)",
        "meta_object_id": "2017-007B",
        "meta_epoch": "2025-12-05T22:03:08.746272",
        "meta_mean_motion": 1.00270461,
        "meta_eccentricity": 3.273e-05,
        "meta_inclination": 0.0317,
        "meta_ra_of_asc_node": 69.9778,
        "meta_arg_of_pericenter": 267.6371,
        "meta_mean_anomaly": 24.9596,
        "meta_ephemeris_type": 0,
        "meta_classification_type": "U",
        "meta_norad_cat_id": 41945,
        "meta_element_set_no": 999,
        "meta_rev_at_epoch": 3228,
        "meta_bstar": 0,
        "meta_mean_motion_dot": -2.6e-06,
        "meta_mean_motion_ddot": 0,
        "tle_line1": "1 41945U 17007B   25339.91885123 -.00000260  00000+0  00000+0 0  9994",
        "tle_line2": "2 41945   0.0317  69.9778 0000327 267.6371  24.9596  1.00270461 32287"
      },
      "geometry": {
        "type": "Point",
        "coordinates": [
          175.81435878291848,
          0.015089309425571962
        ]
      }
    },
    {
      "type": "Feature",
      "properties": {
        "norad_id": 42818,
        "name": "INTELSAT 35E (IS-35E)",
        "group": "intelsat",
        "lat": -0.014036192917783208,
        "lon": -175.51553303389005,
        "alt_km": 35783.92262433493,
        "timestamp": "2025-12-06T09:34:16.585720+00:00",
        "meta_object_name": "INTELSAT 35E (IS-35E)",
        "meta_object_id": "2017-041A",
        "meta_epoch": "2025-12-05T22:05:31.019424",
        "meta_mean_motion": 1.00270215,
        "meta_eccentricity": 0.00024242,
        "meta_inclination": 0.0172,
        "meta_ra_of_asc_node": 352.0162,
        "meta_arg_of_pericenter": 267.5985,
        "meta_mean_anomaly": 112.2507,
        "meta_ephemeris_type": 0,
        "meta_classification_type": "U",
        "meta_norad_cat_id": 42818,
        "meta_element_set_no": 999,
        "meta_rev_at_epoch": 3087,
        "meta_bstar": 0,
        "meta_mean_motion_dot": -2.29e-06,
        "meta_mean_motion_ddot": 0,
        "tle_line1": "1 42818U 17041A   25339.92049791 -.00000229  00000+0  00000+0 0  9991",
        "tle_line2": "2 42818   0.0172 352.0162 0002424 267.5985 112.2507  1.00270215 30872"
      },
      "geometry": {
        "type": "Point",
        "coordinates": [
          -175.51553303389005,
          -0.014036192917783208
        ]
      }
    },
    {
      "type": "Feature",
      "properties": {
        "norad_id": 42950,
        "name": "INTELSAT 37E (IS-37E)",
        "group": "intelsat",
        "lat": -0.007801910747120816,
        "lon": -159.03132997536304,
        "alt_km": 35776.94927953287,
        "timestamp": "2025-12-06T09:34:16.585732+00:00",
        "meta_object_name": "INTELSAT 37E (IS-37E)",
        "meta_object_id": "2017-059A",
        "meta_epoch": "2025-12-05T22:10:15.564000",
        "meta_mean_motion": 1.00270695,
        "meta_eccentricity": 0.00034995,
        "meta_inclination": 0.004,
        "meta_ra_of_asc_node": 29.8645,
        "meta_arg_of_pericenter": 221.4502,
        "meta_mean_anomaly": 138.2268,
        "meta_ephemeris_type": 0,
        "meta_classification_type": "U",
        "meta_norad_cat_id": 42950,
        "meta_element_set_no": 999,
        "meta_rev_at_epoch": 3012,
        "meta_bstar": 0,
        "meta_mean_motion_dot": -1.31e-06,
        "meta_mean_motion_ddot": 0,
        "tle_line1": "1 42950U 17059A   25339.92379125 -.00000131  00000+0  00000+0 0  9996",
        "tle_line2": "2 42950   0.0040  29.8645 0003499 221.4502 138.2268  1.00270695 30127"
      },
      "geometry": {
        "type": "Point",
        "coordinates": [
          -159.03132997536304,
          -0.007801910747120816
        ]
      }
    },
    {
      "type": "Feature",
      "properties": {
        "norad_id": 43632,
        "name": "AZERSPACE 2 (IS-38)",
        "group": "intelsat",
        "lat": -0.02673468979724533,
        "lon": -95.88820334680716,
        "alt_km": 35779.601498729455,
        "timestamp": "2025-12-06T09:34:16.585743+00:00",
        "meta_object_name": "AZERSPACE 2 (IS-38)",
        "meta_object_id": "2018-074A",
        "meta_epoch": "2025-12-05T20:13:38.707968",
        "meta_mean_motion": 1.00270126,
        "meta_eccentricity": 0.00016335,
        "meta_inclination": 0.009,
        "meta_ra_of_asc_node": 310.2311,
        "meta_arg_of_pericenter": 307.7534,
        "meta_mean_anomaly": 165.4349,
        "meta_ephemeris_type": 0,
        "meta_classification_type": "U",
        "meta_norad_cat_id": 43632,
        "meta_element_set_no": 999,
        "meta_rev_at_epoch": 2650,
        "meta_bstar": 0,
        "meta_mean_motion_dot": 1.46e-06,
        "meta_mean_motion_ddot": 0,
        "tle_line1": "1 43632U 18074A   25339.84280912  .00000146  00000+0  00000+0 0  9993",
        "tle_line2": "2 43632   0.0090 310.2311 0001633 307.7534 165.4349  1.00270126 26506"
      },
      "geometry": {
        "type": "Point",
        "coordinates": [
          -95.88820334680716,
          -0.02673468979724533
        ]
      }
    },
    {
      "type": "Feature",
      "properties": {
        "norad_id": 43633,
        "name": "HORIZONS-3E",
        "group": "intelsat",
        "lat": 0.018888367917891034,
        "lon": 28.027519667623427,
        "alt_km": 35788.66923872137,
        "timestamp": "2025-12-06T09:34:16.585755+00:00",
        "meta_object_name": "HORIZONS-3E",
        "meta_object_id": "2018-074B",
        "meta_epoch": "2025-12-05T21:20:57.787872",
        "meta_mean_motion": 1.00268545,
        "meta_eccentricity": 0.00011405,
        "meta_inclination": 0.0401,
        "meta_ra_of_asc_node": 192.2057,
        "meta_arg_of_pericenter": 85.4441,
        "meta_mean_anomaly": 286.5534,
        "meta_ephemeris_type": 0,
        "meta_classification_type": "U",
        "meta_norad_cat_id": 43633,
        "meta_element_set_no": 999,
        "meta_rev_at_epoch": 2640,
        "meta_bstar": 0,
        "meta_mean_motion_dot": -2.1e-07,
        "meta_mean_motion_ddot": 0,
        "tle_line1": "1 43633U 18074B   25339.88955773 -.00000021  00000+0  00000+0 0  9995",
        "tle_line2": "2 43633   0.0401 192.2057 0001140  85.4441 286.5534  1.00268545 26400"
      },
      "geometry": {
        "type": "Point",
        "coordinates": [
          28.027519667623427,
          0.018888367917891034
        ]
      }
    }
  ]
}